[{"OBJECT_NAME":"NIGERIASAT-2","OBJECT_ID":"2011-044B","EPOCH":"2026-03-09T22:16:13.230624","MEAN_MOTION":14.70414983,"ECCENTRICITY":0.00315152,"INCLINATION":97.8701,"RA_OF_ASC_NODE":49.4656,"ARG_OF_PERICENTER":79.9218,"MEAN_ANOMALY":4.7488,"EPHEMERIS_TYPE":0,"CLASSIFICATION_TYPE":"U","NORAD_CAT_ID":37789,"ELEMENT_SET_NO":999,"REV_AT_EPOCH":77598,"BSTAR":0.00015542996,"MEAN_MOTION_DOT":9.0e-6,"MEAN_MOTION_DDOT":0},{"OBJECT_NAME":"COSMOS 2251 DEB","OBJECT_ID":"1993-036BT","EPOCH":"2026-03-09T22:44:00.919104","MEAN_MOTION":14.52927931,"ECCENTRICITY":0.00841824,"INCLINATION":74.0629,"RA_OF_ASC_NODE":245.7917,"ARG_OF_PERICENTER":269.0334,"MEAN_ANOMALY":207.5034,"EPHEMERIS_TYPE":0,"CLASSIFICATION_TYPE":"U","NORAD_CAT_ID":33826,"ELEMENT_SET_NO":999,"REV_AT_EPOCH":89035,"BSTAR":0.0021588922,"MEAN_MOTION_DOT":9.302e-5,"MEAN_MOTION_DDOT":0}]
